[
  {
    "OBJECT_NAME": "STARLINK-5138",
    "OBJECT_ID": "22136AD",
    "EPOCH": "2025-11-11T08:00:03.000384",
    "MEAN_MOTION": 16.00098886,
    "ECCENTRICITY": 0.0001195,
    "INCLINATION": 53.2121,
    "RA_OF_ASC_NODE": 117.4925,
    "ARG_OF_PERICENTER": 169.2193,
    "MEAN_ANOMALY": 46.2953,
    "EPHEMERIS_TYPE": 0,
    "CLASSIFICATION_TYPE": "U",
    "NORAD_CAT_ID": 54078,
    "ELEMENT_SET_NO": 999,
    "REV_AT_EPOCH": 593,
    "BSTAR": 0.0021748,
    "MEAN_MOTION_DOT": 0.01135936,
    "MEAN_MOTION_DDOT": 0.00066541,
    "TLE_LINE1": "1 54078U 22136AD  25315.33336806  .01135936  66541-3  21748-2 0  9993",
    "TLE_LINE2": "2 54078  53.2121 117.4925 0001195 169.2193  46.2953 16.00098886  5938",
    "COMMENT": "Grouped by shell and plane from TLE"
  }
]